{"type": "FeatureCollection", "features": [ {"type": "Feature", "properties": {"norad_id": 41836, "name": "HIMAWARI-9", "group": "weather", "lat": 0.016744978740500342, "lon": 46.757926495970835, "alt_km": 35784.55849543234, "timestamp": "2025-12-23T11:34:47.828514+00:00", "meta": {"OBJECT_NAME": "HIMAWARI-9", "OBJECT_ID": "2016-064A", "EPOCH": "2025-12-22T18:58:13.571040", "MEAN_MOTION": 1.00272669, "ECCENTRICITY": 0.000148, "INCLINATION": 0.0164, "RA_OF_ASC_NODE": 29.9097, "ARG_OF_PERICENTER": 299.5848, "MEAN_ANOMALY": 187.4267, "EPHEMERIS_TYPE": 0, "CLASSIFICATION_TYPE": "U", "NORAD_CAT_ID": 41836, "ELEMENT_SET_NO": 999, "REV_AT_EPOCH": 3344, "BSTAR": 0, "MEAN_MOTION_DOT": 0, "MEAN_MOTION_DDOT": 0}, "tle": {"line1": "1 41836U 16064A   25356.79043485  .00000000  00000+0  00000+0 0  9998", "line2": "2 41836   0.0164  29.9097 0001480 299.5848 187.4267  1.00272669 33441"}}, "geometry": {"type": "Point", "coordinates": [46.757926495970835, 0.016744978740500342]}}, {"type": "Feature", "properties": {"norad_id": 41866, "name": "GOES 16", "group": "weather", "lat": 0.0705698069274801, "lon": 161.26525672396468, "alt_km": 35789.48325339304, "timestamp": "2025-12-23T11:34:47.828525+00:00", "meta": {"OBJECT_NAME": "GOES 16", "OBJECT_ID": "2016-071A", "EPOCH": "2025-12-23T02:21:48.282336", "MEAN_MOTION": 1.0027192, "ECCENTRICITY": 0.000308, "INCLINATION": 0.073, "RA_OF_ASC_NODE": 102.8001, "ARG_OF_PERICENTER": 163.7071, "MEAN_ANOMALY": 116.172, "EPHEMERIS_TYPE": 0, "CLASSIFICATION_TYPE": "U", "NORAD_CAT_ID": 41866, "ELEMENT_SET_NO": 999, "REV_AT_EPOCH": 3333, "BSTAR": 0, "MEAN_MOTION_DOT": -7e-07, "MEAN_MOTION_DDOT": 0}, "tle": {"line1": "1 41866U 16071A   25357.09847549 -.00000070  00000+0  00000+0 0  9994", "line2": "2 41866   0.0730 102.8001 0003080 163.7071 116.1720  1.00271920 33337"}}, "geometry": {"type": "Point", "coordinates": [161.26525672396468, 0.0705698069274801]}}, {"type": "Feature", "properties": {"norad_id": 41882, "name": "FENGYUN 4A", "group": "weather", "lat": -1.4834639894468393, "lon": 29.651766141717562, "alt_km": 35806.94154098477, "timestamp": "2025-12-23T11:34:47.828536+00:00", "meta": {"OBJECT_NAME": "FENGYUN 4A", "OBJECT_ID": "2016-077A", "EPOCH": "2025-12-23T01:29:21.571008", "MEAN_MOTION": 1.00264255, "ECCENTRICITY": 0.000457, "INCLINATION": 1.8735, "RA_OF_ASC_NODE": 82.3034, "ARG_OF_PERICENTER": 143.2993, "MEAN_ANOMALY": 12.262, "EPHEMERIS_TYPE": 0, "CLASSIFICATION_TYPE": "U", "NORAD_CAT_ID": 41882, "ELEMENT_SET_NO": 999, "REV_AT_EPOCH": 3316, "BSTAR": 0, "MEAN_MOTION_DOT": -3.37e-06, "MEAN_MOTION_DDOT": 0}, "tle": {"line1": "1 41882U 16077A   25357.06205522 -.00000337  00000+0  00000+0 0  9990", "line2": "2 41882   1.8735  82.3034 0004570 143.2993  12.2620  1.00264255 33167"}}, "geometry": {"type": "Point", "coordinates": [29.651766141717562, -1.4834639894468393]}}, {"type": "Feature", "properties": {"norad_id": 41884, "name": "CYGFM05", "group": "weather", "lat": -13.409140659794858, "lon": 176.88846170495788, "alt_km": 420.81598569697144, "timestamp": "2025-12-23T11:34:47.828546+00:00", "meta": {"OBJECT_NAME": "CYGFM05", "OBJECT_ID": "2016-078A", "EPOCH": "2025-12-23T01:24:58.927104", "MEAN_MOTION": 15.48005421, "ECCENTRICITY": 0.0010754, "INCLINATION": 34.9607, "RA_OF_ASC_NODE": 339.7053, "ARG_OF_PERICENTER": 272.8305, "MEAN_ANOMALY": 87.1186, "EPHEMERIS_TYPE": 0, "CLASSIFICATION_TYPE": "U", "NORAD_CAT_ID": 41884, "ELEMENT_SET_NO": 999, "REV_AT_EPOCH": 50136, "BSTAR": 0.00038507, "MEAN_MOTION_DOT": 0.00020803, "MEAN_MOTION_DDOT": 0}, "tle": {"line1": "1 41884U 16078A   25357.05901536  .00020803  00000+0  38507-3 0  9996", "line2": "2 41884  34.9607 339.7053 0010754 272.8305  87.1186 15.48005421501366"}}, "geometry": {"type": "Point", "coordinates": [176.88846170495788, -13.409140659794858]}}, {"type": "Feature", "properties": {"norad_id": 41885, "name": "CYGFM04", "group": "weather", "lat": -5.7637412686381335, "lon": 139.7152282033503, "alt_km": 416.26882751045105, "timestamp": "2025-12-23T11:34:47.828556+00:00", "meta": {"OBJECT_NAME": "CYGFM04", "OBJECT_ID": "2016-078B", "EPOCH": "2025-12-22T22:24:14.341248", "MEAN_MOTION": 15.5077675, "ECCENTRICITY": 0.0009475, "INCLINATION": 34.9355, "RA_OF_ASC_NODE": 315.0052, "ARG_OF_PERICENTER": 295.7318, "MEAN_ANOMALY": 64.2426, "EPHEMERIS_TYPE": 0, "CLASSIFICATION_TYPE": "U", "NORAD_CAT_ID": 41885, "ELEMENT_SET_NO": 999, "REV_AT_EPOCH": 50152, "BSTAR": 0.0004091, "MEAN_MOTION_DOT": 0.00024384, "MEAN_MOTION_DDOT": 0}, "tle": {"line1": "1 41885U 16078B   25356.93349932  .00024384  00000+0  40910-3 0  9998", "line2": "2 41885  34.9355 315.0052 0009475 295.7318  64.2426 15.50776750501523"}}, "geometry": {"type": "Point", "coordinates": [139.7152282033503, -5.7637412686381335]}}, {"type": "Feature", "properties": {"norad_id": 41886, "name": "CYGFM02", "group": "weather", "lat": -33.94480966605657, "lon": -155.83896729969698, "alt_km": 407.0029376424609, "timestamp": "2025-12-23T11:34:47.828566+00:00", "meta": {"OBJECT_NAME": "CYGFM02", "OBJECT_ID": "2016-078C", "EPOCH": "2025-12-23T04:18:07.828128", "MEAN_MOTION": 15.52200124, "ECCENTRICITY": 0.0011065, "INCLINATION": 34.9444, "RA_OF_ASC_NODE": 311.5816, "ARG_OF_PERICENTER": 299.4074, "MEAN_ANOMALY": 60.5544, "EPHEMERIS_TYPE": 0, "CLASSIFICATION_TYPE": "U", "NORAD_CAT_ID": 41886, "ELEMENT_SET_NO": 999, "REV_AT_EPOCH": 50169, "BSTAR": 0.00040177, "MEAN_MOTION_DOT": 0.00025224, "MEAN_MOTION_DDOT": 0}, "tle": {"line1": "1 41886U 16078C   25357.17925727  .00025224  00000+0  40177-3 0  9997", "line2": "2 41886  34.9444 311.5816 0011065 299.4074  60.5544 15.52200124501697"}}, "geometry": {"type": "Point", "coordinates": [-155.83896729969698, -33.94480966605657]}}, {"type": "Feature", "properties": {"norad_id": 41887, "name": "CYGFM01", "group": "weather", "lat": -34.91928011942547, "lon": -109.66069923809687, "alt_km": 415.7770161231001, "timestamp": "2025-12-23T11:34:47.828576+00:00", "meta": {"OBJECT_NAME": "CYGFM01", "OBJECT_ID": "2016-078D", "EPOCH": "2025-12-23T02:40:46.401024", "MEAN_MOTION": 15.48597087, "ECCENTRICITY": 0.0010478, "INCLINATION": 34.9437, "RA_OF_ASC_NODE": 341.6373, "ARG_OF_PERICENTER": 265.68, "MEAN_ANOMALY": 94.2725, "EPHEMERIS_TYPE": 0, "CLASSIFICATION_TYPE": "U", "NORAD_CAT_ID": 41887, "ELEMENT_SET_NO": 999, "REV_AT_EPOCH": 50131, "BSTAR": 0.0003838, "MEAN_MOTION_DOT": 0.00021169, "MEAN_MOTION_DDOT": 0}, "tle": {"line1": "1 41887U 16078D   25357.11164816  .00021169  00000+0  38380-3 0  9993", "line2": "2 41887  34.9437 341.6373 0010478 265.6800  94.2725 15.48597087501317"}}, "geometry": {"type": "Point", "coordinates": [-109.66069923809687, -34.91928011942547]}}, {"type": "Feature", "properties": {"norad_id": 41888, "name": "CYGFM08", "group": "weather", "lat": 3.8339764473921205, "lon": -32.4175158257883, "alt_km": 413.4787639189399, "timestamp": "2025-12-23T11:34:47.828586+00:00", "meta": {"OBJECT_NAME": "CYGFM08", "OBJECT_ID": "2016-078E", "EPOCH": "2025-12-23T02:16:31.996128", "MEAN_MOTION": 15.498304, "ECCENTRICITY": 0.0011784, "INCLINATION": 34.9466, "RA_OF_ASC_NODE": 324.6167, "ARG_OF_PERICENTER": 288.0166, "MEAN_ANOMALY": 71.9272, "EPHEMERIS_TYPE": 0, "CLASSIFICATION_TYPE": "U", "NORAD_CAT_ID": 41888, "ELEMENT_SET_NO": 999, "REV_AT_EPOCH": 50154, "BSTAR": 0.00040023, "MEAN_MOTION_DOT": 0.00023082, "MEAN_MOTION_DDOT": 0}, "tle": {"line1": "1 41888U 16078E   25357.09481477  .00023082  00000+0  40023-3 0  9999", "line2": "2 41888  34.9466 324.6167 0011784 288.0166  71.9272 15.49830400501541"}}, "geometry": {"type": "Point", "coordinates": [-32.4175158257883, 3.8339764473921205]}}, {"type": "Feature", "properties": {"norad_id": 41890, "name": "CYGFM07", "group": "weather", "lat": 9.748749821210513, "lon": -34.76171663618493, "alt_km": 410.7773880028026, "timestamp": "2025-12-23T11:34:47.828597+00:00", "meta": {"OBJECT_NAME": "CYGFM07", "OBJECT_ID": "2016-078G", "EPOCH": "2025-12-23T02:14:02.846400", "MEAN_MOTION": 15.50423278, "ECCENTRICITY": 0.0009703, "INCLINATION": 34.9481, "RA_OF_ASC_NODE": 313.551, "ARG_OF_PERICENTER": 302.9672, "MEAN_ANOMALY": 57.0117, "EPHEMERIS_TYPE": 0, "CLASSIFICATION_TYPE": "U", "NORAD_CAT_ID": 41890, "ELEMENT_SET_NO": 999, "REV_AT_EPOCH": 50156, "BSTAR": 0.00039101, "MEAN_MOTION_DOT": 0.00023008, "MEAN_MOTION_DDOT": 0}, "tle": {"line1": "1 41890U 16078G   25357.09308850  .00023008  00000+0  39101-3 0  9998", "line2": "2 41890  34.9481 313.5510 0009703 302.9672  57.0117 15.50423278501564"}}, "geometry": {"type": "Point", "coordinates": [-34.76171663618493, 9.748749821210513]}}, {"type": "Feature", "properties": {"norad_id": 41891, "name": "CYGFM03", "group": "weather", "lat": -15.518005246872534, "lon": 156.35341911917948, "alt_km": 416.0582050079893, "timestamp": "2025-12-23T11:34:47.828606+00:00", "meta": {"OBJECT_NAME": "CYGFM03", "OBJECT_ID": "2016-078H", "EPOCH": "2025-12-22T22:19:25.327200", "MEAN_MOTION": 15.50310719, "ECCENTRICITY": 0.0009528, "INCLINATION": 34.9437, "RA_OF_ASC_NODE": 316.5448, "ARG_OF_PERICENTER": 289.6347, "MEAN_ANOMALY": 70.3347, "EPHEMERIS_TYPE": 0, "CLASSIFICATION_TYPE": "U", "NORAD_CAT_ID": 41891, "ELEMENT_SET_NO": 999, "REV_AT_EPOCH": 50151, "BSTAR": 0.00040606, "MEAN_MOTION_DOT": 0.00023801, "MEAN_MOTION_DDOT": 0}, "tle": {"line1": "1 41891U 16078H   25356.93015425  .00023801  00000+0  40606-3 0  9997", "line2": "2 41891  34.9437 316.5448 0009528 289.6347  70.3347 15.50310719501517"}}, "geometry": {"type": "Point", "coordinates": [156.35341911917948, -15.518005246872534]}}]}